0 FLOCK 4X 30
1 51000U 22002S   24001.77728678  .00020453  00000-0  58673-3 0  9997
2 51000  97.4112  75.3151 0005794 236.1275 123.9418 15.35889586109236
0 FLOCK 4X 30
1 51000U 22002S   24002.16819054  .00023752  00000-0  68030-3 0  9993
2 51000  97.4109  75.7087 0005765 235.4644 124.6056 15.35909241109297
0 FLOCK 4X 30
1 51000U 22002S   24002.16819054  .00023752  00000-0  68030-3 0  9993
2 51000  97.4109  75.7087 0005765 235.4644 124.6056 15.35909241109297
0 FLOCK 4X 30
1 51000U 22002S   24002.75453812  .00021663  00000-0  62034-3 0  9991
2 51000  97.4108  76.2987 0005814 232.4538 127.6178 15.35934050109389
0 FLOCK 4X 30
1 51000U 22002S   24003.21057944  .00020441  00000-0  58521-3 0  9998
2 51000  97.4109  76.7577 0005823 230.8397 129.2330 15.35953135109456
0 FLOCK 4X 30
1 51000U 22002S   24003.21057944  .00020441  00000-0  58521-3 0  9998
2 51000  97.4109  76.7577 0005823 230.8397 129.2330 15.35953135109456
0 FLOCK 4X 30
1 51000U 22002S   24003.73176261  .00020524  00000-0  58714-3 0  9995
2 51000  97.4110  77.2822 0005853 228.4316 131.6426 15.35975767109531
0 FLOCK 4X 30
1 51000U 22002S   24004.18779200  .00021730  00000-0  62101-3 0  9992
2 51000  97.4109  77.7415 0005847 226.9115 133.1640 15.35995209109601
0 FLOCK 4X 30
1 51000U 22002S   24004.70896059  .00019262  00000-0  55054-3 0  9998
2 51000  97.4110  78.2659 0005920 224.1786 135.8986 15.36017375109685
0 FLOCK 4X 30
1 51000U 22002S   24004.70896059  .00019262  00000-0  55054-3 0  9998
2 51000  97.4110  78.2659 0005920 224.1786 135.8986 15.36017375109685
0 FLOCK 4X 30
1 51000U 22002S   24005.16497742  .00019775  00000-0  56475-3 0  9992
2 51000  97.4111  78.7254 0005907 222.7935 137.2849 15.36035927109752
0 FLOCK 4X 30
1 51000U 22002S   24005.75127659  .00018813  00000-0  53704-3 0  9998
2 51000  97.4112  79.3155 0005983 219.7978 140.2828 15.36059516109848
0 FLOCK 4X 30
1 51000U 22002S   24005.75127659  .00018813  00000-0  53704-3 0  9998
2 51000  97.4112  79.3155 0005983 219.7978 140.2828 15.36059516109848
0 FLOCK 4X 30
1 51000U 22002S   24006.14213703  .00021387  00000-0  60964-3 0  9994
2 51000  97.4113  79.7091 0005971 218.3851 141.6968 15.36078717109905
0 FLOCK 4X 30
1 51000U 22002S   24006.72842095  .00018843  00000-0  53720-3 0  9995
2 51000  97.4112  80.2992 0005968 216.5438 143.5400 15.36100441109999
0 FLOCK 4X 30
1 51000U 22002S   24007.18441280  .00018544  00000-0  52843-3 0  9990
2 51000  97.4112  80.7583 0005977 214.9967 145.0885 15.36118827110060
0 FLOCK 4X 30
1 51000U 22002S   24007.51011769  .00019774  00000-0  56296-3 0  9994
2 51000  97.4112  81.0860 0006040 213.3058 146.7807 15.36133580110119
0 FLOCK 4X 30
1 51000U 22002S   24007.70553944  .00021161  00000-0  60198-3 0  9990
2 51000  97.4113  81.2830 0006021 213.0211 147.0658 15.36143321110141
0 FLOCK 4X 30
1 51000U 22002S   24008.16151900  .00021672  00000-0  61605-3 0  9998
2 51000  97.4114  81.7423 0006045 211.2804 148.8081 15.36162401110216
0 FLOCK 4X 30
1 51000U 22002S   24008.16151900  .00021672  00000-0  61605-3 0  9998
2 51000  97.4114  81.7423 0006045 211.2804 148.8081 15.36162401110216
0 FLOCK 4X 30
1 51000U 22002S   24008.74776968  .00022636  00000-0  64272-3 0  9993
2 51000  97.4114  82.3324 0006096 208.6994 151.3915 15.36189283110301
0 FLOCK 4X 30
1 51000U 22002S   24009.13859734  .00024010  00000-0  68103-3 0  9995
2 51000  97.4113  82.7260 0006084 207.4010 152.6914 15.36208987110368
0 FLOCK 4X 30
1 51000U 22002S   24009.72482924  .00025098  00000-0  71099-3 0  9998
2 51000  97.4113  83.3159 0006133 204.9127 155.1822 15.36240149110450
0 FLOCK 4X 30
1 51000U 22002S   24009.72482924  .00025098  00000-0  71099-3 0  9998
2 51000  97.4113  83.3159 0006133 204.9127 155.1822 15.36240149110450
0 FLOCK 4X 30
1 51000U 22002S   24010.18077940  .00024751  00000-0  70069-3 0  9999
2 51000  97.4108  83.7755 0006150 203.2643 156.8324 15.36262949110529
0 FLOCK 4X 30
1 51000U 22002S   24010.76699014  .00026605  00000-0  75201-3 0  9998
2 51000  97.4106  84.3657 0006223 200.8795 159.2196 15.36296340110613
0 FLOCK 4X 30
1 51000U 22002S   24011.15778955  .00031306  00000-0  88321-3 0  9995
2 51000  97.4104  84.7592 0006222 199.7040 160.3965 15.36323055110678
0 FLOCK 4X 30
1 51000U 22002S   24011.74397609  .00031296  00000-0  88180-3 0  9994
2 51000  97.4101  85.3492 0006239 197.2893 162.8139 15.36362629110768
0 FLOCK 4X 30
1 51000U 22002S   24011.74397609  .00031296  00000-0  88180-3 0  9994
2 51000  97.4101  85.3492 0006239 197.2893 162.8139 15.36362629110768
0 FLOCK 4X 30
1 51000U 22002S   24012.13475921  .00030527  00000-0  85959-3 0  9999
2 51000  97.4099  85.7428 0006243 195.7997 164.3053 15.36387259110825
0 FLOCK 4X 30
1 51000U 22002S   24012.72092184  .00029047  00000-0  81721-3 0  9998
2 51000  97.4098  86.3329 0006355 193.1491 166.9588 15.36424075110915
0 FLOCK 4X 30
1 51000U 22002S   24013.17681685  .00032002  00000-0  89891-3 0  9999
2 51000  97.4095  86.7917 0006312 191.5174 168.5926 15.36453629110980
0 FLOCK 4X 30
1 51000U 22002S   24013.17681685  .00032002  00000-0  89891-3 0  9999
2 51000  97.4095  86.7917 0006312 191.5174 168.5926 15.36453629110980
0 FLOCK 4X 30
1 51000U 22002S   24014.15370570  .00032846  00000-0  92062-3 0  9996
2 51000  97.4088  87.7751 0006401 188.1915 171.9226 15.36515628111130
0 FLOCK 4X 30
1 51000U 22002S   24014.73981921  .00035551  00000-0  99458-3 0  9990
2 51000  97.4087  88.3654 0006420 185.9451 174.1718 15.36557417111222
0 FLOCK 4X 30
1 51000U 22002S   24014.73981921  .00035551  00000-0  99458-3 0  9990
2 51000  97.4087  88.3654 0006420 185.9451 174.1718 15.36557417111222
0 FLOCK 4X 30
1 51000U 22002S   24015.19567359  .00037604  00000-0  10504-2 0  9991
2 51000  97.4085  88.8245 0006440 184.1986 175.9205 15.36592764111298
0 FLOCK 4X 30
1 51000U 22002S   24015.78175742  .00032650  00000-0  91173-3 0  9995
2 51000  97.4083  89.4150 0006493 181.8133 178.3089 15.36632655111385
0 FLOCK 4X 30
1 51000U 22002S   24015.78175742  .00032650  00000-0  91173-3 0  9995
2 51000  97.4083  89.4150 0006493 181.8133 178.3089 15.36632655111385
0 FLOCK 4X 30
1 51000U 22002S   24016.17247179  .00033658  00000-0  93887-3 0  9996
2 51000  97.4081  89.8085 0006509 180.5614 179.5623 15.36659390111441
0 FLOCK 4X 30
1 51000U 22002S   24016.75853003  .00031739  00000-0  88455-3 0  9992
2 51000  97.4082  90.3988 0006517 178.2953 181.8314 15.36699327111537
0 FLOCK 4X 30
1 51000U 22002S   24017.14922705  .00032934  00000-0  91680-3 0  9994
2 51000  97.4080  90.7925 0006563 176.9075 183.2211 15.36726864111596
0 FLOCK 4X 30
1 51000U 22002S   24017.14922705  .00032934  00000-0  91680-3 0  9994
2 51000  97.4080  90.7925 0006563 176.9075 183.2211 15.36726864111596
0 FLOCK 4X 30
1 51000U 22002S   24017.73526064  .00032166  00000-0  89447-3 0  9992
2 51000  97.4082  91.3829 0006574 174.5351 185.5966 15.36765055111688
0 FLOCK 4X 30
1 51000U 22002S   24018.19105424  .00033184  00000-0  92168-3 0  9991
2 51000  97.4081  91.8423 0006642 172.9499 187.1840 15.36795648111751
0 FLOCK 4X 30
1 51000U 22002S   24018.19105424  .00033184  00000-0  92168-3 0  9991
2 51000  97.4081  91.8423 0006642 172.9499 187.1840 15.36795648111751
0 FLOCK 4X 30
1 51000U 22002S   24018.77706186  .00031249  00000-0  86724-3 0  9998
2 51000  97.4082  92.4328 0006701 170.9137 189.2229 15.36832316111844
0 FLOCK 4X 30
1 51000U 22002S   24019.16772577  .00033210  00000-0  92053-3 0  9991
2 51000  97.4085  92.8262 0006794 169.9554 190.1827 15.36857944111907
0 FLOCK 4X 30
1 51000U 22002S   24019.75370897  .00033165  00000-0  91812-3 0  9996
2 51000  97.4085  93.4166 0006746 167.9379 192.2028 15.36897687111990
0 FLOCK 4X 30
1 51000U 22002S   24019.75370897  .00033165  00000-0  91812-3 0  9996
2 51000  97.4085  93.4166 0006746 167.9379 192.2028 15.36897687111990
0 FLOCK 4X 30
1 51000U 22002S   24020.14435637  .00032165  00000-0  88990-3 0  9997
2 51000  97.4085  93.8103 0006777 166.4295 193.7132 15.36922594112056
0 FLOCK 4X 30
1 51000U 22002S   24020.73031537  .00030535  00000-0  84409-3 0  9993
2 51000  97.4087  94.4008 0006843 164.1899 195.9560 15.36959563112143
0 FLOCK 4X 30
1 51000U 22002S   24021.18605153  .00032452  00000-0  89584-3 0  9993
2 51000  97.4086  94.8600 0006826 162.5941 197.5539 15.36989468112214
0 FLOCK 4X 30
1 51000U 22002S   24021.18605153  .00032452  00000-0  89584-3 0  9993
2 51000  97.4086  94.8600 0006826 162.5941 197.5539 15.36989468112214
0 FLOCK 4X 30
1 51000U 22002S   24021.64177964  .00030846  00000-0  85109-3 0  9992
2 51000  97.4088  95.3194 0006739 161.3380 198.8113 15.37016631112280
0 FLOCK 4X 30
1 51000U 22002S   24022.16260380  .00028403  00000-0  78349-3 0  9999
2 51000  97.4088  95.8442 0006760 159.5273 200.6243 15.37040895112369
0 FLOCK 4X 30
1 51000U 22002S   24022.16260380  .00028403  00000-0  78349-3 0  9999
2 51000  97.4088  95.8442 0006760 159.5273 200.6243 15.37040895112369
0 FLOCK 4X 30
1 51000U 22002S   24022.81361852  .00030716  00000-0  84576-3 0  9996
2 51000  97.4087  96.5002 0006826 157.0517 203.1034 15.37080983112464
0 FLOCK 4X 30
1 51000U 22002S   24023.13911825  .00029708  00000-0  81758-3 0  9991
2 51000  97.4085  96.8286 0006872 156.1504 204.0060 15.37103332112515
0 FLOCK 4X 30
1 51000U 22002S   24023.65990846  .00031158  00000-0  85616-3 0  9997
2 51000  97.4084  97.3531 0006908 154.3326 205.8263 15.37141332112599
0 FLOCK 4X 30
1 51000U 22002S   24023.72500633  .00030251  00000-0  83130-3 0  9998
2 51000  97.4086  97.4188 0006913 153.7789 206.3807 15.37145354112602
0 FLOCK 4X 30
1 51000U 22002S   24024.18068716  .00031674  00000-0  86928-3 0  9998
2 51000  97.4083  97.8780 0006927 152.5026 207.6586 15.37175337112676
0 FLOCK 4X 30
1 51000U 22002S   24024.76655155  .00029272  00000-0  80295-3 0  9993
2 51000  97.4082  98.4681 0006942 151.0566 209.1064 15.37207310112767
0 FLOCK 4X 30
1 51000U 22002S   24024.76655155  .00029272  00000-0  80295-3 0  9993
2 51000  97.4082  98.4681 0006942 151.0566 209.1064 15.37207310112767
